{
  "type": "FeatureCollection",
  "features": [
    {
      "type": "Feature",
      "properties": {
        "norad_id": 30405,
        "name": "FENGYUN 1C DEB",
        "group": "fengyun-1c-debris",
        "lat": 26.093303819852046,
        "lon": -95.43012349808004,
        "alt_km": 757.5240265924167,
        "timestamp": "2025-12-12T05:47:29.047158+00:00",
        "meta_object_name": "FENGYUN 1C DEB",
        "meta_object_id": "1999-025ADU",
        "meta_epoch": "2025-12-11T22:38:42.483264",
        "meta_mean_motion": 14.28907169,
        "meta_eccentricity": 0.00514394,
        "meta_inclination": 98.7935,
        "meta_ra_of_asc_node": 79.922,
        "meta_arg_of_pericenter": 156.0754,
        "meta_mean_anomaly": 266.5761,
        "meta_ephemeris_type": 0,
        "meta_classification_type": "U",
        "meta_norad_cat_id": 30405,
        "meta_element_set_no": 999,
        "meta_rev_at_epoch": 97384,
        "meta_bstar": 0.0027641413,
        "meta_mean_motion_dot": 7.041e-05,
        "meta_mean_motion_ddot": 0,
        "tle_line1": "1 30405U 99025ADU 25345.94354726  .00007041  00000+0  27641-2 0  9999",
        "tle_line2": "2 30405  98.7935  79.9220 0051439 156.0754 266.5761 14.28907169973845"
      },
      "geometry": {
        "type": "Point",
        "coordinates": [
          -95.43012349808004,
          26.093303819852046
        ]
      }
    },
    {
      "type": "Feature",
      "properties": {
        "norad_id": 30406,
        "name": "FENGYUN 1C DEB",
        "group": "fengyun-1c-debris",
        "lat": -56.71314541741394,
        "lon": 43.6061684837934,
        "alt_km": 1157.1344190475547,
        "timestamp": "2025-12-12T05:47:29.047168+00:00",
        "meta_object_name": "FENGYUN 1C DEB",
        "meta_object_id": "1999-025ADV",
        "meta_epoch": "2025-12-11T16:22:32.129184",
        "meta_mean_motion": 13.59206195,
        "meta_eccentricity": 0.02831487,
        "meta_inclination": 98.62,
        "meta_ra_of_asc_node": 236.4716,
        "meta_arg_of_pericenter": 2.5626,
        "meta_mean_anomaly": 24.0647,
        "meta_ephemeris_type": 0,
        "meta_classification_type": "U",
        "meta_norad_cat_id": 30406,
        "meta_element_set_no": 999,
        "meta_rev_at_epoch": 93152,
        "meta_bstar": 0.0032737459,
        "meta_mean_motion_dot": 3.101e-05,
        "meta_mean_motion_ddot": 0,
        "tle_line1": "1 30406U 99025ADV 25345.68231631  .00003101  00000+0  32737-2 0  9995",
        "tle_line2": "2 30406  98.6200 236.4716 0283148   2.5626  24.0647 13.59206195931520"
      },
      "geometry": {
        "type": "Point",
        "coordinates": [
          43.6061684837934,
          -56.71314541741394
        ]
      }
    },
    {
      "type": "Feature",
      "properties": {
        "norad_id": 30409,
        "name": "FENGYUN 1C DEB",
        "group": "fengyun-1c-debris",
        "lat": -77.36041433010344,
        "lon": 111.99805900586004,
        "alt_km": 920.76198001583,
        "timestamp": "2025-12-12T05:47:29.047178+00:00",
        "meta_object_name": "FENGYUN 1C DEB",
        "meta_object_id": "1999-025ADY",
        "meta_epoch": "2025-12-11T12:00:31.438368",
        "meta_mean_motion": 14.03727175,
        "meta_eccentricity": 0.01679179,
        "meta_inclination": 98.4733,
        "meta_ra_of_asc_node": 332.969,
        "meta_arg_of_pericenter": 9.0682,
        "meta_mean_anomaly": 111.1398,
        "meta_ephemeris_type": 0,
        "meta_classification_type": "U",
        "meta_norad_cat_id": 30409,
        "meta_element_set_no": 999,
        "meta_rev_at_epoch": 96412,
        "meta_bstar": 0.0015851875,
        "meta_mean_motion_dot": 2.787e-05,
        "meta_mean_motion_ddot": 0,
        "tle_line1": "1 30409U 99025ADY 25345.50036387  .00002787  00000+0  15852-2 0  9998",
        "tle_line2": "2 30409  98.4733 332.9690 0167917   9.0682 111.1398 14.03727175964123"
      },
      "geometry": {
        "type": "Point",
        "coordinates": [
          111.99805900586004,
          -77.36041433010344
        ]
      }
    },
    {
      "type": "Feature",
      "properties": {
        "norad_id": 30411,
        "name": "FENGYUN 1C DEB",
        "group": "fengyun-1c-debris",
        "lat": 57.416338411924386,
        "lon": 90.54385195972017,
        "alt_km": 775.440511563741,
        "timestamp": "2025-12-12T05:47:29.047188+00:00",
        "meta_object_name": "FENGYUN 1C DEB",
        "meta_object_id": "1999-025AEA",
        "meta_epoch": "2025-12-11T07:02:48.647040",
        "meta_mean_motion": 14.07635233,
        "meta_eccentricity": 0.01226158,
        "meta_inclination": 98.5811,
        "meta_ra_of_asc_node": 255.9779,
        "meta_arg_of_pericenter": 110.6601,
        "meta_mean_anomaly": 250.7766,
        "meta_ephemeris_type": 0,
        "meta_classification_type": "U",
        "meta_norad_cat_id": 30411,
        "meta_element_set_no": 999,
        "meta_rev_at_epoch": 95963,
        "meta_bstar": 0.0024165675,
        "meta_mean_motion_dot": 4.334e-05,
        "meta_mean_motion_ddot": 0,
        "tle_line1": "1 30411U 99025AEA 25345.29361860  .00004334  00000+0  24166-2 0  9992",
        "tle_line2": "2 30411  98.5811 255.9779 0122615 110.6601 250.7766 14.07635233959638"
      },
      "geometry": {
        "type": "Point",
        "coordinates": [
          90.54385195972017,
          57.416338411924386
        ]
      }
    },
    {
      "type": "Feature",
      "properties": {
        "norad_id": 30413,
        "name": "FENGYUN 1C DEB",
        "group": "fengyun-1c-debris",
        "lat": 67.39993496795071,
        "lon": 69.84970794490727,
        "alt_km": 787.0089259608485,
        "timestamp": "2025-12-12T05:47:29.047198+00:00",
        "meta_object_name": "FENGYUN 1C DEB",
        "meta_object_id": "1999-025AEC",
        "meta_epoch": "2025-12-11T14:19:59.704320",
        "meta_mean_motion": 14.32514519,
        "meta_eccentricity": 0.00454105,
        "meta_inclination": 102.062,
        "meta_ra_of_asc_node": 218.0475,
        "meta_arg_of_pericenter": 219.8339,
        "meta_mean_anomaly": 169.9312,
        "meta_ephemeris_type": 0,
        "meta_classification_type": "U",
        "meta_norad_cat_id": 30413,
        "meta_element_set_no": 999,
        "meta_rev_at_epoch": 97123,
        "meta_bstar": 0.0032057006,
        "meta_mean_motion_dot": 8.73e-05,
        "meta_mean_motion_ddot": 0,
        "tle_line1": "1 30413U 99025AEC 25345.59721880  .00008730  00000+0  32057-2 0  9991",
        "tle_line2": "2 30413 102.0620 218.0475 0045410 219.8339 169.9312 14.32514519971238"
      },
      "geometry": {
        "type": "Point",
        "coordinates": [
          69.84970794490727,
          67.39993496795071
        ]
      }
    },
    {
      "type": "Feature",
      "properties": {
        "norad_id": 30414,
        "name": "FENGYUN 1C DEB",
        "group": "fengyun-1c-debris",
        "lat": -14.886529684219143,
        "lon": -38.97030113928626,
        "alt_km": 740.8365215464892,
        "timestamp": "2025-12-12T05:47:29.047208+00:00",
        "meta_object_name": "FENGYUN 1C DEB",
        "meta_object_id": "1999-025AED",
        "meta_epoch": "2025-12-11T23:51:41.658624",
        "meta_mean_motion": 14.3414248,
        "meta_eccentricity": 0.00584688,
        "meta_inclination": 99.0808,
        "meta_ra_of_asc_node": 143.207,
        "meta_arg_of_pericenter": 190.9215,
        "meta_mean_anomaly": 169.0703,
        "meta_ephemeris_type": 0,
        "meta_classification_type": "U",
        "meta_norad_cat_id": 30414,
        "meta_element_set_no": 999,
        "meta_rev_at_epoch": 97076,
        "meta_bstar": 0.0038939323,
        "meta_mean_motion_dot": 0.00011082,
        "meta_mean_motion_ddot": 0,
        "tle_line1": "1 30414U 99025AED 25345.99423216  .00011082  00000+0  38939-2 0  9997",
        "tle_line2": "2 30414  99.0808 143.2070 0058468 190.9215 169.0703 14.34142480970769"
      },
      "geometry": {
        "type": "Point",
        "coordinates": [
          -38.97030113928626,
          -14.886529684219143
        ]
      }
    },
    {
      "type": "Feature",
      "properties": {
        "norad_id": 30415,
        "name": "FENGYUN 1C DEB",
        "group": "fengyun-1c-debris",
        "lat": 36.77357017435262,
        "lon": 39.185493849177014,
        "alt_km": 1103.6795262783326,
        "timestamp": "2025-12-12T05:47:29.047232+00:00",
        "meta_object_name": "FENGYUN 1C DEB",
        "meta_object_id": "1999-025AEE",
        "meta_epoch": "2025-12-10T09:50:09.121056",
        "meta_mean_motion": 13.68925916,
        "meta_eccentricity": 0.02383681,
        "meta_inclination": 99.6458,
        "meta_ra_of_asc_node": 44.6545,
        "meta_arg_of_pericenter": 275.2543,
        "meta_mean_anomaly": 98.9202,
        "meta_ephemeris_type": 0,
        "meta_classification_type": "U",
        "meta_norad_cat_id": 30415,
        "meta_element_set_no": 999,
        "meta_rev_at_epoch": 93846,
        "meta_bstar": 0.0017368588,
        "meta_mean_motion_dot": 1.781e-05,
        "meta_mean_motion_ddot": 0,
        "tle_line1": "1 30415U 99025AEE 25344.40982779  .00001781  00000+0  17369-2 0  9996",
        "tle_line2": "2 30415  99.6458  44.6545 0238368 275.2543  98.9202 13.68925916938462"
      },
      "geometry": {
        "type": "Point",
        "coordinates": [
          39.185493849177014,
          36.77357017435262
        ]
      }
    }
  ]
}